{"type": "FeatureCollection", "features": [ {"type": "Feature", "properties": {"norad_id": 32289, "name": "YAOGAN-3", "group": "resource", "lat": -77.55649525159971, "lon": 66.7495951592394, "alt_km": 606.2661690359964, "timestamp": "2025-12-27T15:27:10.799879+00:00", "meta": {"OBJECT_NAME": "YAOGAN-3", "OBJECT_ID": "2007-055A", "EPOCH": "2025-12-27T07:45:14.486112", "MEAN_MOTION": 14.89931354, "ECCENTRICITY": 0.00011896, "INCLINATION": 97.8358, "RA_OF_ASC_NODE": 27.8159, "ARG_OF_PERICENTER": 81.5941, "MEAN_ANOMALY": 278.5412, "EPHEMERIS_TYPE": 0, "CLASSIFICATION_TYPE": "U", "NORAD_CAT_ID": 32289, "ELEMENT_SET_NO": 999, "REV_AT_EPOCH": 98026, "BSTAR": 0.00042956911, "MEAN_MOTION_DOT": 4.08e-05, "MEAN_MOTION_DDOT": 0}, "tle": {"line1": "1 32289U 07055A   25361.32308433  .00004080  00000+0  42957-3 0  9995", "line2": "2 32289  97.8358  27.8159 0001189  81.5941 278.5412 14.89931354980266"}}, "geometry": {"type": "Point", "coordinates": [66.7495951592394, -77.55649525159971]}}, {"type": "Feature", "properties": {"norad_id": 32376, "name": "COSMO-SKYMED 2", "group": "resource", "lat": 35.31926906934746, "lon": 8.375400200346444, "alt_km": 619.7412746842856, "timestamp": "2025-12-27T15:27:10.799901+00:00", "meta": {"OBJECT_NAME": "COSMO-SKYMED 2", "OBJECT_ID": "2007-059A", "EPOCH": "2025-12-27T06:42:12.396096", "MEAN_MOTION": 14.82161054, "ECCENTRICITY": 0.0001287, "INCLINATION": 97.8807, "RA_OF_ASC_NODE": 182.3843, "ARG_OF_PERICENTER": 83.0468, "MEAN_ANOMALY": 277.0892, "EPHEMERIS_TYPE": 0, "CLASSIFICATION_TYPE": "U", "NORAD_CAT_ID": 32376, "ELEMENT_SET_NO": 999, "REV_AT_EPOCH": 97653, "BSTAR": 9.2941681e-05, "MEAN_MOTION_DOT": 6.88e-06, "MEAN_MOTION_DDOT": 0}, "tle": {"line1": "1 32376U 07059A   25361.27931014  .00000688  00000+0  92942-4 0  9997", "line2": "2 32376  97.8807 182.3843 0001287  83.0468 277.0892 14.82161054976535"}}, "geometry": {"type": "Point", "coordinates": [8.375400200346444, 35.31926906934746]}}, {"type": "Feature", "properties": {"norad_id": 32382, "name": "RADARSAT-2", "group": "resource", "lat": 1.2145995292280818, "lon": -173.7991824748818, "alt_km": 794.6152810825897, "timestamp": "2025-12-27T15:27:10.799916+00:00", "meta": {"OBJECT_NAME": "RADARSAT-2", "OBJECT_ID": "2007-061A", "EPOCH": "2025-12-27T07:54:11.234880", "MEAN_MOTION": 14.29986441, "ECCENTRICITY": 0.00011454, "INCLINATION": 98.5802, "RA_OF_ASC_NODE": 5.7074, "ARG_OF_PERICENTER": 84.8483, "MEAN_ANOMALY": 275.283, "EPHEMERIS_TYPE": 0, "CLASSIFICATION_TYPE": "U", "NORAD_CAT_ID": 32382, "ELEMENT_SET_NO": 999, "REV_AT_EPOCH": 94139, "BSTAR": 0.00013971797, "MEAN_MOTION_DOT": 3.17e-06, "MEAN_MOTION_DDOT": 0}, "tle": {"line1": "1 32382U 07061A   25361.32929670  .00000317  00000+0  13972-3 0  9992", "line2": "2 32382  98.5802   5.7074 0001145  84.8483 275.2830 14.29986441941392"}}, "geometry": {"type": "Point", "coordinates": [-173.7991824748818, 1.2145995292280818]}}, {"type": "Feature", "properties": {"norad_id": 32783, "name": "CARTOSAT-2A", "group": "resource", "lat": 66.67351770261757, "lon": -110.48921056891422, "alt_km": 633.3032780162839, "timestamp": "2025-12-27T15:27:10.799927+00:00", "meta": {"OBJECT_NAME": "CARTOSAT-2A", "OBJECT_ID": "2008-021A", "EPOCH": "2025-12-27T06:49:45.616800", "MEAN_MOTION": 14.78951694, "ECCENTRICITY": 0.00111026, "INCLINATION": 97.7907, "RA_OF_ASC_NODE": 50.6512, "ARG_OF_PERICENTER": 316.2617, "MEAN_ANOMALY": 43.7715, "EPHEMERIS_TYPE": 0, "CLASSIFICATION_TYPE": "U", "NORAD_CAT_ID": 32783, "ELEMENT_SET_NO": 999, "REV_AT_EPOCH": 95339, "BSTAR": 7.407155e-05, "MEAN_MOTION_DOT": 4.97e-06, "MEAN_MOTION_DDOT": 0}, "tle": {"line1": "1 32783U 08021A   25361.28455575  .00000497  00000+0  74072-4 0  9995", "line2": "2 32783  97.7907  50.6512 0011102 316.2617  43.7715 14.78951694953394"}}, "geometry": {"type": "Point", "coordinates": [-110.48921056891422, 66.67351770261757]}}, {"type": "Feature", "properties": {"norad_id": 33320, "name": "HUANJING 1A (HJ-1A)", "group": "resource", "lat": -36.21619206708254, "lon": 163.66809335336671, "alt_km": 633.3942387155539, "timestamp": "2025-12-27T15:27:10.799938+00:00", "meta": {"OBJECT_NAME": "HUANJING 1A (HJ-1A)", "OBJECT_ID": "2008-041A", "EPOCH": "2025-12-27T06:23:05.294400", "MEAN_MOTION": 14.83441834, "ECCENTRICITY": 0.00189892, "INCLINATION": 97.6555, "RA_OF_ASC_NODE": 348.9588, "ARG_OF_PERICENTER": 347.9237, "MEAN_ANOMALY": 12.152, "EPHEMERIS_TYPE": 0, "CLASSIFICATION_TYPE": "U", "NORAD_CAT_ID": 33320, "ELEMENT_SET_NO": 999, "REV_AT_EPOCH": 93291, "BSTAR": 0.00030022759, "MEAN_MOTION_DOT": 2.422e-05, "MEAN_MOTION_DDOT": 0}, "tle": {"line1": "1 33320U 08041A   25361.26603350  .00002422  00000+0  30023-3 0  9996", "line2": "2 33320  97.6555 348.9588 0018989 347.9237  12.1520 14.83441834932910"}}, "geometry": {"type": "Point", "coordinates": [163.66809335336671, -36.21619206708254]}}, {"type": "Feature", "properties": {"norad_id": 33321, "name": "HUANJING 1B (HJ-1B)", "group": "resource", "lat": 46.36172148981988, "lon": -15.114859141649644, "alt_km": 591.2848204371558, "timestamp": "2025-12-27T15:27:10.799949+00:00", "meta": {"OBJECT_NAME": "HUANJING 1B (HJ-1B)", "OBJECT_ID": "2008-041B", "EPOCH": "2025-12-27T07:08:46.819104", "MEAN_MOTION": 14.82862111, "ECCENTRICITY": 0.00376408, "INCLINATION": 97.6413, "RA_OF_ASC_NODE": 352.6479, "ARG_OF_PERICENTER": 29.5678, "MEAN_ANOMALY": 330.7654, "EPHEMERIS_TYPE": 0, "CLASSIFICATION_TYPE": "U", "NORAD_CAT_ID": 33321, "ELEMENT_SET_NO": 999, "REV_AT_EPOCH": 93293, "BSTAR": 0.00023336793, "MEAN_MOTION_DOT": 1.862e-05, "MEAN_MOTION_DDOT": 0}, "tle": {"line1": "1 33321U 08041B   25361.29776411  .00001862  00000+0  23337-3 0  9996", "line2": "2 33321  97.6413 352.6479 0037640  29.5678 330.7654 14.82862111932935"}}, "geometry": {"type": "Point", "coordinates": [-15.114859141649644, 46.36172148981988]}}, {"type": "Feature", "properties": {"norad_id": 33331, "name": "GEOEYE 1", "group": "resource", "lat": 36.379829938088946, "lon": -101.22419569065778, "alt_km": 674.9839206978231, "timestamp": "2025-12-27T15:27:10.799960+00:00", "meta": {"OBJECT_NAME": "GEOEYE 1", "OBJECT_ID": "2008-042A", "EPOCH": "2025-12-27T06:36:14.348448", "MEAN_MOTION": 14.6471997, "ECCENTRICITY": 0.00031057, "INCLINATION": 98.1235, "RA_OF_ASC_NODE": 72.3715, "ARG_OF_PERICENTER": 222.44, "MEAN_ANOMALY": 137.6563, "EPHEMERIS_TYPE": 0, "CLASSIFICATION_TYPE": "U", "NORAD_CAT_ID": 33331, "ELEMENT_SET_NO": 999, "REV_AT_EPOCH": 92498, "BSTAR": 0.00013597737, "MEAN_MOTION_DOT": 6.76e-06, "MEAN_MOTION_DDOT": 0}, "tle": {"line1": "1 33331U 08042A   25361.27516607  .00000676  00000+0  13598-3 0  9995", "line2": "2 33331  98.1235  72.3715 0003105 222.4400 137.6563 14.64719970924982"}}, "geometry": {"type": "Point", "coordinates": [-101.22419569065778, 36.379829938088946]}}, {"type": "Feature", "properties": {"norad_id": 33396, "name": "THEOS", "group": "resource", "lat": 49.96934093037816, "lon": -110.34856195619402, "alt_km": 819.7236267063536, "timestamp": "2025-12-27T15:27:10.799971+00:00", "meta": {"OBJECT_NAME": "THEOS", "OBJECT_ID": "2008-049A", "EPOCH": "2025-12-27T08:04:58.643040", "MEAN_MOTION": 14.20099739, "ECCENTRICITY": 0.00012202, "INCLINATION": 98.5843, "RA_OF_ASC_NODE": 58.9942, "ARG_OF_PERICENTER": 92.0635, "MEAN_ANOMALY": 268.0682, "EPHEMERIS_TYPE": 0, "CLASSIFICATION_TYPE": "U", "NORAD_CAT_ID": 33396, "ELEMENT_SET_NO": 999, "REV_AT_EPOCH": 89357, "BSTAR": 4.512989e-05, "MEAN_MOTION_DOT": 5.4e-07, "MEAN_MOTION_DDOT": 0}, "tle": {"line1": "1 33396U 08049A   25361.33678985  .00000054  00000+0  45130-4 0  9996", "line2": "2 33396  98.5843  58.9942 0001220  92.0635 268.0682 14.20099739893578"}}, "geometry": {"type": "Point", "coordinates": [-110.34856195619402, 49.96934093037816]}}, {"type": "Feature", "properties": {"norad_id": 33412, "name": "COSMO-SKYMED 3", "group": "resource", "lat": 71.13665729979073, "lon": 56.08763899446094, "alt_km": 531.8244114250074, "timestamp": "2025-12-27T15:27:10.799981+00:00", "meta": {"OBJECT_NAME": "COSMO-SKYMED 3", "OBJECT_ID": "2008-054A", "EPOCH": "2025-12-27T07:00:11.683296", "MEAN_MOTION": 15.05476839, "ECCENTRICITY": 0.00171041, "INCLINATION": 97.845, "RA_OF_ASC_NODE": 211.9294, "ARG_OF_PERICENTER": 125.1715, "MEAN_ANOMALY": 235.1116, "EPHEMERIS_TYPE": 0, "CLASSIFICATION_TYPE": "U", "NORAD_CAT_ID": 33412, "ELEMENT_SET_NO": 999, "REV_AT_EPOCH": 93106, "BSTAR": 0.00020931319, "MEAN_MOTION_DOT": 2.952e-05, "MEAN_MOTION_DDOT": 0}, "tle": {"line1": "1 33412U 08054A   25361.29180189  .00002952  00000+0  20931-3 0  9990", "line2": "2 33412  97.8450 211.9294 0017104 125.1715 235.1116 15.05476839931067"}}, "geometry": {"type": "Point", "coordinates": [56.08763899446094, 71.13665729979073]}}, {"type": "Feature", "properties": {"norad_id": 33446, "name": "YAOGAN-4", "group": "resource", "lat": -47.879019250849005, "lon": -59.545653992975886, "alt_km": 620.7402937318247, "timestamp": "2025-12-27T15:27:10.799992+00:00", "meta": {"OBJECT_NAME": "YAOGAN-4", "OBJECT_ID": "2008-061A", "EPOCH": "2025-12-27T05:57:11.988288", "MEAN_MOTION": 14.82725658, "ECCENTRICITY": 0.00129687, "INCLINATION": 97.9199, "RA_OF_ASC_NODE": 291.2063, "ARG_OF_PERICENTER": 271.6936, "MEAN_ANOMALY": 88.2792, "EPHEMERIS_TYPE": 0, "CLASSIFICATION_TYPE": "U", "NORAD_CAT_ID": 33446, "ELEMENT_SET_NO": 999, "REV_AT_EPOCH": 92018, "BSTAR": 0.0002107495, "MEAN_MOTION_DOT": 1.65e-05, "MEAN_MOTION_DDOT": 0}, "tle": {"line1": "1 33446U 08061A   25361.24805542  .00001650  00000+0  21075-3 0  9991", "line2": "2 33446  97.9199 291.2063 0012968 271.6936  88.2792 14.82725658920183"}}, "geometry": {"type": "Point", "coordinates": [-59.545653992975886, -47.879019250849005]}}]}